model,file,norad_id,feature,RMSE,MAPE%,h,w,span,overall_acc_percent,hidden,layers,heads,horizon_days,levels,epochs,batches,kernel,d_model,blocks,rmse_log
tcn,37791_tle_20250729_214501_last90d_enctrig_w90_h90,37791,eccentricity,3.2415487182765416e-05,0.15571003314107656,90,90.0,last90d,99.94735417227882,512.0,,,,3.0,120.0,128.0,,,,-4.489247446860808
tcn,37791_tle_20250729_214501_last90d_enctrig_w90_h90,37791,mean_motion,0.00019458461894381266,0.0013061086065135896,90,90.0,last90d,99.94735417227882,512.0,,,,3.0,120.0,128.0,,,,-3.7108914917749107
tcn,37791_tle_20250729_214501_last90d_enctrig_w90_h90,37791,semi_major_axis,0.0770251338999054,0.0009213414159603417,90,90.0,last90d,99.94735417227882,512.0,,,,3.0,120.0,128.0,,,,-1.11336753803615
tcn,37791_tle_20250729_214501_last90d_enctrig_w90_h90,37791,inclination_deg,0.0002944796310984411,,90,90.0,last90d,99.94735417227882,512.0,,,,3.0,120.0,128.0,,,,-3.5309447396119595
tcn,37791_tle_20250729_214501_last90d_enctrig_w90_h90,37791,raan_deg,4.168200207515267,,90,90.0,last90d,99.94735417227882,512.0,,,,3.0,120.0,128.0,,,,0.6199485708794982
tcn,37791_tle_20250729_214501_last90d_enctrig_w90_h90,37791,arg_perigee_deg,2.963395178729803,,90,90.0,last90d,99.94735417227882,512.0,,,,3.0,120.0,128.0,,,,0.4717895699741095
tcn,37791_tle_20250729_214501_last90d_enctrig_w90_h90,37791,mean_anomaly_deg,16.274814244860888,,90,90.0,last90d,99.94735417227882,512.0,,,,3.0,120.0,128.0,,,,1.2115160403804885
tcn,37791_tle_20250729_214501_full_enctrig_w60_h90,37791,eccentricity,0.0001680421119028246,0.7906472310423851,90,60.0,full,99.70916882739402,512.0,,,,3.0,120.0,128.0,,,,-3.7745818690170525
tcn,37791_tle_20250729_214501_full_enctrig_w60_h90,37791,mean_motion,0.006302857727221464,0.03547720261849463,90,60.0,full,99.70916882739402,512.0,,,,3.0,120.0,128.0,,,,-2.200462495980843
tcn,37791_tle_20250729_214501_full_enctrig_w60_h90,37791,semi_major_axis,3.9007441666572977,0.046369084157049656,90,60.0,full,99.70916882739402,512.0,,,,3.0,120.0,128.0,,,,0.5911474677041363
tcn,37791_tle_20250729_214501_full_enctrig_w60_h90,37791,inclination_deg,0.010871571747764297,,90,60.0,full,99.70916882739402,512.0,,,,3.0,120.0,128.0,,,,-1.9637076636381436
tcn,37791_tle_20250729_214501_full_enctrig_w60_h90,37791,raan_deg,1541.8612193151787,,90,60.0,full,99.70916882739402,512.0,,,,3.0,120.0,128.0,,,,3.1880452852596757
tcn,37791_tle_20250729_214501_full_enctrig_w60_h90,37791,arg_perigee_deg,16.15520055702104,,90,60.0,full,99.70916882739402,512.0,,,,3.0,120.0,128.0,,,,1.2083123538898368
tcn,37791_tle_20250729_214501_full_enctrig_w60_h90,37791,mean_anomaly_deg,40.61873542799938,,90,60.0,full,99.70916882739402,512.0,,,,3.0,120.0,128.0,,,,1.608726398507716
tcn,37791_tle_20250729_214501_full_enctrig_w90_h7,37791,eccentricity,0.00015692292225677175,0.7363868411630392,7,90.0,full,99.73213032547694,512.0,,,,3.0,120.0,128.0,,,,-3.804313612929873
tcn,37791_tle_20250729_214501_full_enctrig_w90_h7,37791,mean_motion,0.005265657791152238,0.03087300865445286,7,90.0,full,99.73213032547694,512.0,,,,3.0,120.0,128.0,,,,-2.278547368595586
tcn,37791_tle_20250729_214501_full_enctrig_w90_h7,37791,semi_major_axis,3.047430056363114,0.03634917375165969,7,90.0,full,99.73213032547694,512.0,,,,3.0,120.0,128.0,,,,0.48393374661720123
tcn,37791_tle_20250729_214501_full_enctrig_w90_h7,37791,inclination_deg,0.007145415907174727,,7,90.0,full,99.73213032547694,512.0,,,,3.0,120.0,128.0,,,,-2.1459724875260426
tcn,37791_tle_20250729_214501_full_enctrig_w90_h7,37791,raan_deg,1923.4566755640276,,7,90.0,full,99.73213032547694,512.0,,,,3.0,120.0,128.0,,,,3.28408240859169
tcn,37791_tle_20250729_214501_full_enctrig_w90_h7,37791,arg_perigee_deg,14.473577247512635,,7,90.0,full,99.73213032547694,512.0,,,,3.0,120.0,128.0,,,,1.1605758833547175
tcn,37791_tle_20250729_214501_full_enctrig_w90_h7,37791,mean_anomaly_deg,11.799240583656237,,7,90.0,full,99.73213032547694,512.0,,,,3.0,120.0,128.0,,,,1.0718540563789327
tcn,37791_tle_20250729_214501_last730d_enctrig_w90_h15,37791,eccentricity,6.585710093878229e-05,0.32306190114468336,15,90.0,last730d,99.88022210794345,512.0,,,,3.0,120.0,128.0,,,,-4.181397391055041
tcn,37791_tle_20250729_214501_last730d_enctrig_w90_h15,37791,mean_motion,0.0028547489993623167,0.016549366409890354,15,90.0,last730d,99.88022210794345,512.0,,,,3.0,120.0,128.0,,,,-2.5444320705999095
tcn,37791_tle_20250729_214501_last730d_enctrig_w90_h15,37791,semi_major_axis,1.6866096691005066,0.0197224086150527,15,90.0,last730d,99.88022210794345,512.0,,,,3.0,120.0,128.0,,,,0.22701458574855982
tcn,37791_tle_20250729_214501_last730d_enctrig_w90_h15,37791,inclination_deg,0.0056720418838191585,,15,90.0,last730d,99.88022210794345,512.0,,,,3.0,120.0,128.0,,,,-2.2462605708707617
tcn,37791_tle_20250729_214501_last730d_enctrig_w90_h15,37791,raan_deg,241.02346954459983,,15,90.0,last730d,99.88022210794345,512.0,,,,3.0,120.0,128.0,,,,2.3820593338505613
tcn,37791_tle_20250729_214501_last730d_enctrig_w90_h15,37791,arg_perigee_deg,9.831800324365833,,15,90.0,last730d,99.88022210794345,512.0,,,,3.0,120.0,128.0,,,,0.9926330498105916
tcn,37791_tle_20250729_214501_last730d_enctrig_w90_h15,37791,mean_anomaly_deg,19.62617974981646,,15,90.0,last730d,99.88022210794345,512.0,,,,3.0,120.0,128.0,,,,1.2928357720891779
tcn,37791_tle_20250729_214501_last730d_enctrig_w30_h3,37791,eccentricity,9.059810912423755e-05,0.45129675418138504,3,30.0,last730d,99.83790291104621,512.0,,,,3.0,120.0,128.0,,,,-4.042880866401323
tcn,37791_tle_20250729_214501_last730d_enctrig_w30_h3,37791,mean_motion,0.002779336339036804,0.016889280232135206,3,30.0,last730d,99.83790291104621,512.0,,,,3.0,120.0,128.0,,,,-2.556058894262896
tcn,37791_tle_20250729_214501_last730d_enctrig_w30_h3,37791,semi_major_axis,1.4412411644326482,0.01810523244785145,3,30.0,last730d,99.83790291104621,512.0,,,,3.0,120.0,128.0,,,,0.15873665785702604
tcn,37791_tle_20250729_214501_last730d_enctrig_w30_h3,37791,inclination_deg,0.0014045531139847468,,3,30.0,last730d,99.83790291104621,512.0,,,,3.0,120.0,128.0,,,,-2.852461833055971
tcn,37791_tle_20250729_214501_last730d_enctrig_w30_h3,37791,raan_deg,817.5359956478212,,3,30.0,last730d,99.83790291104621,512.0,,,,3.0,120.0,128.0,,,,2.9125068834938728
tcn,37791_tle_20250729_214501_last730d_enctrig_w30_h3,37791,arg_perigee_deg,12.495277841215557,,3,30.0,last730d,99.83790291104621,512.0,,,,3.0,120.0,128.0,,,,1.0967459174104655
tcn,37791_tle_20250729_214501_last730d_enctrig_w30_h3,37791,mean_anomaly_deg,20.77563570033249,,3,30.0,last730d,99.83790291104621,512.0,,,,3.0,120.0,128.0,,,,1.317554321357361
tcn,37791_tle_20250729_214501_last180d_enctrig_w60_h15,37791,eccentricity,9.485273030329954e-05,0.46931663528084755,15,60.0,last180d,99.8380470743238,512.0,,,,3.0,120.0,128.0,,,,-4.022950163577733
tcn,37791_tle_20250729_214501_last180d_enctrig_w60_h15,37791,mean_motion,0.0017466843207020908,0.011842975800391287,15,60.0,last180d,99.8380470743238,512.0,,,,3.0,120.0,128.0,,,,-2.7577855782255796
tcn,37791_tle_20250729_214501_last180d_enctrig_w60_h15,37791,semi_major_axis,0.40564760148100903,0.004699165947386064,15,60.0,last180d,99.8380470743238,512.0,,,,3.0,120.0,128.0,,,,-0.3918510875812155
tcn,37791_tle_20250729_214501_last180d_enctrig_w60_h15,37791,inclination_deg,0.0004971769798083909,,15,60.0,last180d,99.8380470743238,512.0,,,,3.0,120.0,128.0,,,,-3.303488988183323
tcn,37791_tle_20250729_214501_last180d_enctrig_w60_h15,37791,raan_deg,316.74655302324294,,15,60.0,last180d,99.8380470743238,512.0,,,,3.0,120.0,128.0,,,,2.500711897395636
tcn,37791_tle_20250729_214501_last180d_enctrig_w60_h15,37791,arg_perigee_deg,39.0512889757515,,15,60.0,last180d,99.8380470743238,512.0,,,,3.0,120.0,128.0,,,,1.5916353733174786
tcn,37791_tle_20250729_214501_last180d_enctrig_w60_h15,37791,mean_anomaly_deg,27.373383287605954,,15,60.0,last180d,99.8380470743238,512.0,,,,3.0,120.0,128.0,,,,1.4373284785329037
tcn,37791_tle_20250729_214501_last90d_enctrig_w30_h15,37791,eccentricity,5.7751916218421935e-05,0.2787340898066759,15,30.0,last90d,99.90558701932362,512.0,,,,3.0,120.0,128.0,,,,-4.23843360123183
tcn,37791_tle_20250729_214501_last90d_enctrig_w30_h15,37791,mean_motion,0.0004079592875134186,0.0027456771931611,15,30.0,last90d,99.90558701932362,512.0,,,,3.0,120.0,128.0,,,,-3.3893831753672026
tcn,37791_tle_20250729_214501_last90d_enctrig_w30_h15,37791,semi_major_axis,0.1402089467809879,0.001759175029292237,15,30.0,last90d,99.90558701932362,512.0,,,,3.0,120.0,128.0,,,,-0.8532242730052912
tcn,37791_tle_20250729_214501_last90d_enctrig_w30_h15,37791,inclination_deg,0.00027708993361976554,,15,30.0,last90d,99.90558701932362,512.0,,,,3.0,120.0,128.0,,,,-3.5573792513841287
tcn,37791_tle_20250729_214501_last90d_enctrig_w30_h15,37791,raan_deg,2.1426401610299317,,15,30.0,last90d,99.90558701932362,512.0,,,,3.0,120.0,128.0,,,,0.33094924094337447
tcn,37791_tle_20250729_214501_last90d_enctrig_w30_h15,37791,arg_perigee_deg,66.93706280960805,,15,30.0,last90d,99.90558701932362,512.0,,,,3.0,120.0,128.0,,,,1.8256666516493976
tcn,37791_tle_20250729_214501_last90d_enctrig_w30_h15,37791,mean_anomaly_deg,30.69445348849793,,15,30.0,last90d,99.90558701932362,512.0,,,,3.0,120.0,128.0,,,,1.4870599052177789
tcn,37791_tle_20250729_214501_last730d_enctrig_w60_h1,37791,eccentricity,7.707831280964473e-05,0.3832112066447735,1,60.0,last730d,99.86284731930937,512.0,,,,3.0,120.0,128.0,,,,-4.113067800314985
tcn,37791_tle_20250729_214501_last730d_enctrig_w60_h1,37791,mean_motion,0.0017566569594073013,0.010393751290393993,1,60.0,last730d,99.86284731930937,512.0,,,,3.0,120.0,128.0,,,,-2.755313039405119
tcn,37791_tle_20250729_214501_last730d_enctrig_w60_h1,37791,semi_major_axis,1.4208764562840137,0.017853084136731923,1,60.0,last730d,99.86284731930937,512.0,,,,3.0,120.0,128.0,,,,0.1525563181198315
tcn,37791_tle_20250729_214501_last730d_enctrig_w60_h1,37791,inclination_deg,0.0020654708411701763,,1,60.0,last730d,99.86284731930937,512.0,,,,3.0,120.0,128.0,,,,-2.6849809317008435
